[{"OBJECT_NAME":"STARLINK-34046","OBJECT_ID":"2025-102P","EPOCH":"2026-03-09T12:40:58.076544","MEAN_MOTION":14.98301012,"ECCENTRICITY":0.00040357,"INCLINATION":70.0013,"RA_OF_ASC_NODE":114.9216,"ARG_OF_PERICENTER":239.0821,"MEAN_ANOMALY":120.9941,"EPHEMERIS_TYPE":0,"CLASSIFICATION_TYPE":"U","NORAD_CAT_ID":64035,"ELEMENT_SET_NO":999,"REV_AT_EPOCH":4570,"BSTAR":-0.00069639287,"MEAN_MOTION_DOT":-8.387e-5,"MEAN_MOTION_DDOT":0},{"OBJECT_NAME":"FENGYUN 1C DEB","OBJECT_ID":"1999-025DZG","EPOCH":"2026-02-24T08:24:33.782400","MEAN_MOTION":14.7853018,"ECCENTRICITY":0.01019027,"INCLINATION":99.0018,"RA_OF_ASC_NODE":260.336,"ARG_OF_PERICENTER":182.3725,"MEAN_ANOMALY":177.7013,"EPHEMERIS_TYPE":0,"CLASSIFICATION_TYPE":"U","NORAD_CAT_ID":36686,"ELEMENT_SET_NO":999,"REV_AT_EPOCH":66939,"BSTAR":0.00093391276,"MEAN_MOTION_DOT":7.381e-5,"MEAN_MOTION_DDOT":0}]
